[{"OBJECT_NAME":"SAUDICOMSAT 5","OBJECT_ID":"2007-012H","EPOCH":"2026-03-09T22:03:24.279264","MEAN_MOTION":14.68003311,"ECCENTRICITY":0.00488208,"INCLINATION":98.3394,"RA_OF_ASC_NODE":41.8497,"ARG_OF_PERICENTER":78.2285,"MEAN_ANOMALY":282.439,"EPHEMERIS_TYPE":0,"CLASSIFICATION_TYPE":"U","NORAD_CAT_ID":31124,"ELEMENT_SET_NO":999,"REV_AT_EPOCH":903,"BSTAR":0.00021628636,"MEAN_MOTION_DOT":1.209e-5,"MEAN_MOTION_DDOT":0},{"OBJECT_NAME":"SL-14 R\/B","OBJECT_ID":"1995-046C","EPOCH":"2026-03-09T21:50:36.185856","MEAN_MOTION":14.80314206,"ECCENTRICITY":0.0023586,"INCLINATION":82.5282,"RA_OF_ASC_NODE":225.2244,"ARG_OF_PERICENTER":236.9942,"MEAN_ANOMALY":284.2588,"EPHEMERIS_TYPE":0,"CLASSIFICATION_TYPE":"U","NORAD_CAT_ID":23659,"ELEMENT_SET_NO":999,"REV_AT_EPOCH":64532,"BSTAR":7.9944983e-5,"MEAN_MOTION_DOT":6.35e-6,"MEAN_MOTION_DDOT":0}]
